[{"OBJECT_NAME":"ONEWEB-0220","OBJECT_ID":"2021-031Y","EPOCH":"2025-10-28T13:06:33.833952","MEAN_MOTION":13.14501217,"ECCENTRICITY":0.00019027,"INCLINATION":87.9019,"RA_OF_ASC_NODE":335.8336,"ARG_OF_PERICENTER":88.094,"MEAN_ANOMALY":272.0408,"EPHEMERIS_TYPE":0,"CLASSIFICATION_TYPE":"U","NORAD_CAT_ID":48232,"ELEMENT_SET_NO":999,"REV_AT_EPOCH":21797,"BSTAR":0.00045379616,"MEAN_MOTION_DOT":1.81e-6,"MEAN_MOTION_DDOT":0},{"OBJECT_NAME":"ONEWEB-0165","OBJECT_ID":"2021-031Z","EPOCH":"2025-10-28T11:58:03.813600","MEAN_MOTION":13.14502888,"ECCENTRICITY":0.00019848,"INCLINATION":87.9004,"RA_OF_ASC_NODE":335.8764,"ARG_OF_PERICENTER":91.6046,"MEAN_ANOMALY":268.5312,"EPHEMERIS_TYPE":0,"CLASSIFICATION_TYPE":"U","NORAD_CAT_ID":48233,"ELEMENT_SET_NO":999,"REV_AT_EPOCH":21792,"BSTAR":-0.00019828939,"MEAN_MOTION_DOT":-6.1e-7,"MEAN_MOTION_DDOT":0},{"OBJECT_NAME":"ONEWEB-0199","OBJECT_ID":"2021-031AA","EPOCH":"2025-10-28T13:24:49.754880","MEAN_MOTION":13.14500843,"ECCENTRICITY":0.00017783,"INCLINATION":87.9013,"RA_OF_ASC_NODE":335.8349,"ARG_OF_PERICENTER":99.3755,"MEAN_ANOMALY":260.7576,"EPHEMERIS_TYPE":0,"CLASSIFICATION_TYPE":"U","NORAD_CAT_ID":48234,"ELEMENT_SET_NO":999,"REV_AT_EPOCH":21783,"BSTAR":0.00047010436,"MEAN_MOTION_DOT":1.87e-6,"MEAN_MOTION_DDOT":0},{"OBJECT_NAME":"ONEWEB-0203","OBJECT_ID":"2021-031AB","EPOCH":"2025-10-28T11:21:31.462848","MEAN_MOTION":13.14503421,"ECCENTRICITY":0.00020277,"INCLINATION":87.9014,"RA_OF_ASC_NODE":335.853,"ARG_OF_PERICENTER":102.2471,"MEAN_ANOMALY":257.8886,"EPHEMERIS_TYPE":0,"CLASSIFICATION_TYPE":"U","NORAD_CAT_ID":48235,"ELEMENT_SET_NO":999,"REV_AT_EPOCH":21783,"BSTAR":0.00033598772,"MEAN_MOTION_DOT":1.37e-6,"MEAN_MOTION_DDOT":0},{"OBJECT_NAME":"ONEWEB-0197","OBJECT_ID":"2021-031AC","EPOCH":"2025-10-28T12:34:22.677312","MEAN_MOTION":13.14504804,"ECCENTRICITY":0.00015991,"INCLINATION":87.9015,"RA_OF_ASC_NODE":335.8413,"ARG_OF_PERICENTER":88.1257,"MEAN_ANOMALY":272.0056,"EPHEMERIS_TYPE":0,"CLASSIFICATION_TYPE":"U","NORAD_CAT_ID":48236,"ELEMENT_SET_NO":999,"REV_AT_EPOCH":21775,"BSTAR":-0.00048356437,"MEAN_MOTION_DOT":-1.66e-6,"MEAN_MOTION_DDOT":0},{"OBJECT_NAME":"ONEWEB-0194","OBJECT_ID":"2021-031AD","EPOCH":"2025-10-28T12:04:54.754464","MEAN_MOTION":13.1450352,"ECCENTRICITY":0.0001804,"INCLINATION":87.9016,"RA_OF_ASC_NODE":335.8616,"ARG_OF_PERICENTER":103.3452,"MEAN_ANOMALY":256.7879,"EPHEMERIS_TYPE":0,"CLASSIFICATION_TYPE":"U","NORAD_CAT_ID":48237,"ELEMENT_SET_NO":999,"REV_AT_EPOCH":21792,"BSTAR":-0.00046491239,"MEAN_MOTION_DOT":-1.6e-6,"MEAN_MOTION_DDOT":0},{"OBJECT_NAME":"ONEWEB-0193","OBJECT_ID":"2021-031AE","EPOCH":"2025-10-28T12:27:44.014752","MEAN_MOTION":13.14500523,"ECCENTRICITY":0.00019943,"INCLINATION":87.9008,"RA_OF_ASC_NODE":335.8549,"ARG_OF_PERICENTER":113.0257,"MEAN_ANOMALY":247.1083,"EPHEMERIS_TYPE":0,"CLASSIFICATION_TYPE":"U","NORAD_CAT_ID":48238,"ELEMENT_SET_NO":999,"REV_AT_EPOCH":21787,"BSTAR":-0.00020176616,"MEAN_MOTION_DOT":-6.2e-7,"MEAN_MOTION_DDOT":0},{"OBJECT_NAME":"ONEWEB-0191","OBJECT_ID":"2021-031AF","EPOCH":"2025-10-28T12:43:42.443040","MEAN_MOTION":13.14502711,"ECCENTRICITY":0.00018057,"INCLINATION":87.9023,"RA_OF_ASC_NODE":335.8378,"ARG_OF_PERICENTER":96.804,"MEAN_ANOMALY":263.3295,"EPHEMERIS_TYPE":0,"CLASSIFICATION_TYPE":"U","NORAD_CAT_ID":48239,"ELEMENT_SET_NO":999,"REV_AT_EPOCH":21773,"BSTAR":-0.00058563694,"MEAN_MOTION_DOT":-2.04e-6,"MEAN_MOTION_DDOT":0},{"OBJECT_NAME":"ONEWEB-0195","OBJECT_ID":"2021-031AG","EPOCH":"2025-10-28T12:10:37.797024","MEAN_MOTION":13.1450252,"ECCENTRICITY":0.00022334,"INCLINATION":87.9023,"RA_OF_ASC_NODE":335.8383,"ARG_OF_PERICENTER":92.9485,"MEAN_ANOMALY":267.1901,"EPHEMERIS_TYPE":0,"CLASSIFICATION_TYPE":"U","NORAD_CAT_ID":48240,"ELEMENT_SET_NO":999,"REV_AT_EPOCH":21771,"BSTAR":-0.00063816528,"MEAN_MOTION_DOT":-2.24e-6,"MEAN_MOTION_DDOT":0},{"OBJECT_NAME":"ONEWEB-0201","OBJECT_ID":"2021-031AH","EPOCH":"2025-10-28T11:53:41.620704","MEAN_MOTION":13.14503781,"ECCENTRICITY":0.00019134,"INCLINATION":87.901,"RA_OF_ASC_NODE":335.8872,"ARG_OF_PERICENTER":85.912,"MEAN_ANOMALY":274.2229,"EPHEMERIS_TYPE":0,"CLASSIFICATION_TYPE":"U","NORAD_CAT_ID":48241,"ELEMENT_SET_NO":999,"REV_AT_EPOCH":21794,"BSTAR":-0.00012512491,"MEAN_MOTION_DOT":-3.4e-7,"MEAN_MOTION_DDOT":0},{"OBJECT_NAME":"ONEWEB-0207","OBJECT_ID":"2021-031AJ","EPOCH":"2025-10-28T13:14:33.434304","MEAN_MOTION":13.14503448,"ECCENTRICITY":0.00017834,"INCLINATION":87.9015,"RA_OF_ASC_NODE":335.8331,"ARG_OF_PERICENTER":89.3848,"MEAN_ANOMALY":270.7486,"EPHEMERIS_TYPE":0,"CLASSIFICATION_TYPE":"U","NORAD_CAT_ID":48242,"ELEMENT_SET_NO":999,"REV_AT_EPOCH":21786,"BSTAR":0.00051423471,"MEAN_MOTION_DOT":2.03e-6,"MEAN_MOTION_DDOT":0},{"OBJECT_NAME":"ONEWEB-0208","OBJECT_ID":"2021-031AK","EPOCH":"2025-10-28T12:48:16.800192","MEAN_MOTION":13.14505105,"ECCENTRICITY":0.00020354,"INCLINATION":87.9015,"RA_OF_ASC_NODE":335.8527,"ARG_OF_PERICENTER":94.3514,"MEAN_ANOMALY":265.7848,"EPHEMERIS_TYPE":0,"CLASSIFICATION_TYPE":"U","NORAD_CAT_ID":48243,"ELEMENT_SET_NO":999,"REV_AT_EPOCH":21787,"BSTAR":0.00012613833,"MEAN_MOTION_DOT":6.0e-7,"MEAN_MOTION_DDOT":0},{"OBJECT_NAME":"ONEWEB-0200","OBJECT_ID":"2021-031AL","EPOCH":"2025-10-28T13:45:23.495040","MEAN_MOTION":13.14502815,"ECCENTRICITY":0.00019545,"INCLINATION":87.9014,"RA_OF_ASC_NODE":335.8349,"ARG_OF_PERICENTER":94.0384,"MEAN_ANOMALY":266.0969,"EPHEMERIS_TYPE":0,"CLASSIFICATION_TYPE":"U","NORAD_CAT_ID":48244,"ELEMENT_SET_NO":999,"REV_AT_EPOCH":21780,"BSTAR":-0.00013679154,"MEAN_MOTION_DOT":-3.8e-7,"MEAN_MOTION_DDOT":0},{"OBJECT_NAME":"ONEWEB-0217","OBJECT_ID":"2021-031AM","EPOCH":"2025-10-28T12:18:36.362304","MEAN_MOTION":13.1450402,"ECCENTRICITY":0.00021852,"INCLINATION":87.9025,"RA_OF_ASC_NODE":335.8374,"ARG_OF_PERICENTER":95.4383,"MEAN_ANOMALY":264.6996,"EPHEMERIS_TYPE":0,"CLASSIFICATION_TYPE":"U","NORAD_CAT_ID":48245,"ELEMENT_SET_NO":999,"REV_AT_EPOCH":21774,"BSTAR":-0.00061628229,"MEAN_MOTION_DOT":-2.16e-6,"MEAN_MOTION_DDOT":0},{"OBJECT_NAME":"ONEWEB-0211","OBJECT_ID":"2021-045A","EPOCH":"2025-10-28T11:25:21.767232","MEAN_MOTION":13.1613488,"ECCENTRICITY":0.00022798,"INCLINATION":87.8972,"RA_OF_ASC_NODE":305.3663,"ARG_OF_PERICENTER":96.8757,"MEAN_ANOMALY":263.2633,"EPHEMERIS_TYPE":0,"CLASSIFICATION_TYPE":"U","NORAD_CAT_ID":48767,"ELEMENT_SET_NO":999,"REV_AT_EPOCH":21396,"BSTAR":0.00018040178,"MEAN_MOTION_DOT":8.1e-7,"MEAN_MOTION_DDOT":0},{"OBJECT_NAME":"ONEWEB-0223","OBJECT_ID":"2021-045B","EPOCH":"2025-10-28T10:43:05.317248","MEAN_MOTION":13.15549839,"ECCENTRICITY":0.00021269,"INCLINATION":87.8959,"RA_OF_ASC_NODE":305.4299,"ARG_OF_PERICENTER":103.591,"MEAN_ANOMALY":256.5457,"EPHEMERIS_TYPE":0,"CLASSIFICATION_TYPE":"U","NORAD_CAT_ID":48768,"ELEMENT_SET_NO":999,"REV_AT_EPOCH":21393,"BSTAR":8.6552834e-5,"MEAN_MOTION_DOT":4.5e-7,"MEAN_MOTION_DDOT":0}]
