ONEWEB-0220             
1 48232U 21031Y   25301.54622493  .00000181  00000+0  45380-3 0  9994
2 48232  87.9019 335.8336 0001902  88.0940 272.0408 13.14501217217971
ONEWEB-0165             
1 48233U 21031Z   25301.49865525 -.00000061  00000+0 -19829-3 0  9992
2 48233  87.9004 335.8764 0001984  91.6046 268.5312 13.14502888217922
ONEWEB-0199             
1 48234U 21031AA  25301.55890920  .00000187  00000+0  47010-3 0  9997
2 48234  87.9013 335.8349 0001778  99.3755 260.7576 13.14500843217830
ONEWEB-0203             
1 48235U 21031AB  25301.47328082  .00000137  00000+0  33599-3 0  9996
2 48235  87.9014 335.8530 0002027 102.2471 257.8886 13.14503421217837
ONEWEB-0197             
1 48236U 21031AC  25301.52387358 -.00000166  00000+0 -48356-3 0  9995
2 48236  87.9015 335.8413 0001599  88.1257 272.0056 13.14504804217751
ONEWEB-0194             
1 48237U 21031AD  25301.50341151 -.00000160  00000+0 -46491-3 0  9997
2 48237  87.9016 335.8616 0001804 103.3452 256.7879 13.14503520217929
ONEWEB-0193             
1 48238U 21031AE  25301.51925943 -.00000062  00000+0 -20177-3 0  9990
2 48238  87.9008 335.8549 0001994 113.0257 247.1083 13.14500523217872
ONEWEB-0191             
1 48239U 21031AF  25301.53035235 -.00000204  00000+0 -58564-3 0  9998
2 48239  87.9023 335.8378 0001805  96.8040 263.3295 13.14502711217730
ONEWEB-0195             
1 48240U 21031AG  25301.50738191 -.00000224  00000+0 -63817-3 0  9997
2 48240  87.9023 335.8383 0002233  92.9485 267.1901 13.14502520217716
ONEWEB-0201             
1 48241U 21031AH  25301.49562061 -.00000034  00000+0 -12512-3 0  9992
2 48241  87.9010 335.8872 0001913  85.9120 274.2229 13.14503781217945
ONEWEB-0207             
1 48242U 21031AJ  25301.55177586  .00000203  00000+0  51423-3 0  9994
2 48242  87.9015 335.8331 0001783  89.3848 270.7486 13.14503448217868
ONEWEB-0208             
1 48243U 21031AK  25301.53352778  .00000060  00000+0  12614-3 0  9991
2 48243  87.9015 335.8527 0002035  94.3514 265.7848 13.14505105217872
ONEWEB-0200             
1 48244U 21031AL  25301.57318860 -.00000038  00000+0 -13679-3 0  9999
2 48244  87.9014 335.8349 0001954  94.0384 266.0969 13.14502815217801
ONEWEB-0217             
1 48245U 21031AM  25301.51292086 -.00000216  00000+0 -61628-3 0  9990
2 48245  87.9025 335.8374 0002185  95.4383 264.6996 13.14504020217740
ONEWEB-0211             
1 48767U 21045A   25301.47594638  .00000081  00000+0  18040-3 0  9995
2 48767  87.8972 305.3663 0002279  96.8757 263.2633 13.16134880213964
ONEWEB-0223             
1 48768U 21045B   25301.44658932  .00000045  00000+0  86553-4 0  9996
2 48768  87.8959 305.4299 0002126 103.5910 256.5457 13.15549839213933
